HALOSAT                 
1 43549U 98067NX  20160.75545950  .00025808  00000-0  18807-3 0  9994
2 43549  51.6363 335.1869 0002918  70.8553 289.2761 15.73117255108443
ENDUROSAT ONE           
1 43551U 98067NZ  20160.83326315  .00050788  00000-0  25864-3 0  9994
2 43551  51.6345 323.5779 0001697  62.1053 298.0121 15.80892994109019
EQUISAT                 
1 43552U 98067PA  20160.84935505  .00028604  00000-0  20008-3 0  9990
2 43552  51.6363 332.8496 0003492  69.4658 290.6716 15.74013596108850
AEROCUBE 12A            
1 43556U 18046C   20160.55237967  .00000873  00000-0  42156-4 0  9995
2 43556  51.6411 148.3263 0007754 264.8114  95.1982 15.29788995106014
AEROCUBE 12B            
1 43557U 18046D   20160.48087550  .00000426  00000-0  27125-4 0  9992
2 43557  51.6412 149.3373 0007757 263.9598  96.0498 15.29506711105945
UITMSAT-1               
1 43589U 98067PD  20161.01479647  .00038436  00000-0  23695-3 0  9999
2 43589  51.6360 330.0165 0002762  94.6908 265.4408 15.76766629104642
MAYA-1                  
1 43590U 98067PE  20160.50055641  .00033210  00000-0  20587-3 0  9990
2 43590  51.6310 332.5818 0002561  88.6963 271.4331 15.76715743104498
BHUTAN-1                
1 43591U 98067PF  20160.85418840  .00037478  00000-0  22978-3 0  9999
2 43591  51.6371 330.5182 0002829  94.8325 265.2998 15.76903332104556
SIRIUSSAT-1             
1 43595U 98067PG  20160.76744719  .00033908  00000-0  23292-3 0  9994
2 43595  51.6319 335.9026 0001110  39.7083 320.3997 15.74345984103652
SIRIUSSAT-2             
1 43596U 98067PH  20160.89210392  .00032043  00000-0  22141-3 0  9995
2 43596  51.6336 336.0591 0001472  36.8234 323.2866 15.74238716103660
TANUSHA-3               
1 43597U 98067PJ  20160.97558926  .00080141  00000-0  33353-3 0  9992
2 43597  51.6290 322.8511 0001385 297.3474  62.7388 15.85012498103841
SURFSAT                 
1 43614U 18070B   20160.69351915  .00002606  00000-0  67127-4 0  9993
2 43614  93.0198 150.9670 0016130  21.8761 338.3179 15.39157122 97134
CP7 (DAVE)              
1 43615U 18070C   20160.59407969  .00002463  00000-0  63762-4 0  9996
2 43615  93.0199 150.9168 0016282  21.7087 338.4854 15.39012683 97117
ELFIN-B                 
1 43616U 18070D   20160.90213110  .00003921  00000-0  97017-4 0  9995
2 43616  93.0161 150.9839 0016700  22.1880 338.0093 15.40351647 97202
ELFIN-A                 
1 43617U 18070E   20160.74160367  .00004303  00000-0  10587-3 0  9994
2 43617  93.0213 151.4220 0015935  20.2502 339.9382 15.40527994 97188
CUBEBEL-1 (BSUSAT-1)    
1 43666U 18083E   20161.12975439  .00001074  00000-0  55636-4 0  9996
2 43666  97.4890 187.6776 0015954  34.8523  51.1902 15.18250486 89358
DEBRISSAT-2             
1 43680U 98067PR  20151.69072398  .11468650  12477-4  51439-3 0  9995
2 43680  51.6154 356.6377 0010832 273.4515  86.5274 16.42437352111263
CICERO 10               
1 43690U 18088A   20160.80425637  .00000791  00000-0  34603-4 0  9998
2 43690  85.0388  84.0215 0014457 351.2168   8.8817 15.20224674 87441
IRVINE01                
1 43693U 18088D   20160.81828672  .00002250  00000-0  94115-4 0  9994
2 43693  85.0361  82.7293 0016628 330.9288  29.1027 15.22851205 87532
PROXIMA I               
1 43694U 18088E   20161.06933739  .00000896  00000-0  37360-4 0  9997
2 43694  85.0331  82.3997 0017667 320.2407  39.7538 15.21964598 87562
PROXIMA II              
1 43696U 18088G   20160.80457648  .00000904  00000-0  37719-4 0  9998
2 43696  85.0332  82.5782 0017736 321.2223  38.7745 15.21966513 87527
FACSAT-1                
1 43721U 18096C   20161.08653369  .00001424  00000-0  55970-4 0  9992
2 43721  97.4208 234.7057 0018530 147.8962 212.3409 15.27206522 85119
CENTAURI-2              
1 43722U 18096D   20161.11516245  .00001823  00000-0  69768-4 0  9991
2 43722  97.4218 235.0014 0018556 147.5783 212.6600 15.27729672 85127
INNOSAT-2               
1 43738U 18096V   20161.09031538  .00002604  00000-0  90749-4 0  9993
2 43738  97.4234 236.9110 0024248 155.5297 204.7100 15.30298315 85253
SIRION PATHFINDER-2     
1 43759U 18099B   20161.07952808  .00000619  00000-0  61324-4 0  9990
2 43759  97.7055 232.8822 0013616 205.2278 154.8280 14.95275623 82689
CORVUS-BC 4             
1 43767U 18099K   20161.08455277  .00000523  00000-0  53416-4 0  9995
2 43767  97.7037 232.3073 0011014 208.2910 151.7714 14.94723029 82659
MOVE-II                 
1 43780U 18099Y   20160.75880352  .00000669  00000-0  65724-4 0  9995
2 43780  97.7065 232.4951 0012503 217.8290 142.2054 14.95396932 82610
SPACEBEE-7              
1 43816U 18099BL  20160.90054011  .00000264  00000-0  28893-4 0  9994
2 43816  97.7078 233.0209 0012775 200.9694 159.1004 14.95691716 82215
SPACEBEE-5              
1 43817U 18099BM  20161.12490717  .00000659  00000-0  63400-4 0  9998
2 43817  97.7122 233.6742 0012825 200.5098 159.5610 14.96292882 82268
SPACEBEE-6              
1 43818U 18099BN  20161.13264208  .00000553  00000-0  54597-4 0  9994
2 43818  97.7087 233.3841 0012970 200.2282 159.8427 14.95876477 82401
SHIELDS 1               
1 43850U 18104B   20160.78335508  .00000477  00000-0  19369-4 0  9992
2 43850  85.0293 181.0867 0017276 100.5975 259.7213 15.21382271 82157
STF-1                   
1 43852U 18104D   20160.79579180  .00001026  00000-0  43935-4 0  9998
2 43852  85.0336 181.6137 0016863 112.9377 247.3646 15.21270351 82133
ZACUBE-2                
1 43907U 18111AH  20161.05125899  .00000386  00000-0  18415-4 0  9994
2 43907  97.2665  61.0685 0021719 168.8218 191.3507 15.24583427 80735
LUME 1                  
1 43908U 18111AJ  20160.84664449  .00000802  00000-0  34763-4 0  9997
2 43908  97.2666  61.0349 0021432 169.0333 191.1377 15.25025715 80710
AOBA VELOX-IV           
1 43940U 19003J   20160.71719873  .00001558  00000-0  64906-4 0  9993
2 43940  97.2283 212.2959 0022069 252.9341 106.9479 15.24987852 77313
CATSAT-2                
1 44029U 98067PV  20160.82226727  .00018712  00000-0  19160-3 0  9993
2 44029  51.6392 359.7902 0003995  64.8548 295.2861 15.65027885 77175
DELPHINI                
1 44030U 98067PW  20160.84501521  .00019202  00000-0  18910-3 0  9992
2 44030  51.6351 358.3326 0003567  64.6823 295.4542 15.65993276 77169
UNITE                   
1 44031U 98067PX  20160.85939220  .00009746  00000-0  11887-3 0  9993
2 44031  51.6383   5.2506 0003196  57.1544 302.9757 15.61194646 77070
CATSAT-1                
1 44033U 98067PZ  20160.82219902  .00018147  00000-0  18595-3 0  9998
2 44033  51.6391 359.7964 0003940  62.9654 297.1743 15.65034299 77081
RAAVANA-1               
1 44329U 98067QE  20160.78949435  .00009557  00000-0  13262-3 0  9993
2 44329  51.6400  17.5860 0005100 336.7185  23.3575 15.57767409 55653
UGUISU                  
1 44330U 98067QF  20160.86566302  .00009901  00000-0  13755-3 0  9992
2 44330  51.6391  17.3402 0005121 335.3245  24.7501 15.57688132 55647
NEPALISAT-1             
1 44331U 98067QG  20160.84620151  .00009419  00000-0  13068-3 0  9995
2 44331  51.6391  17.2128 0005169 338.5677  21.5098 15.57793019 55656
SPOOQY-1                
1 44332U 98067QH  20160.84913709  .00009522  00000-0  13249-3 0  9996
2 44332  51.6393  17.2296 0004185 343.7007  16.3850 15.57702154 55611
SPACEBEE-9              
1 44370U 19037F   20161.05964437  .00007296  00000-0  16751-3 0  9993
2 44370  45.0053 162.6812 0011499 137.4999 222.6782 15.43341960 53305
SPACEBEE-8              
1 44371U 19037G   20160.37981900  .00016556  00000-0  32182-3 0  9997
2 44371  45.0054 161.0046 0009308 132.4084 227.7595 15.47428882 53249
IOD-1 GEMS              
1 44385U 98067QK  20161.10557879  .00015313  00000-0  19192-3 0  9994
2 44385  51.6408  14.4925 0001427 289.5856  70.4983 15.59966196 53187
MOVE-IIB                
1 44398U 19038N   20160.88475290  .00000883  00000-0  54395-4 0  9990
2 44398  97.5356 122.2252 0025780 153.4934 206.7622 15.12306475 51287
SONATE                  
1 44400U 19038Q   20160.85095162  .00000428  00000-0  28600-4 0  9992
2 44400  97.5393 122.2082 0025922 152.3280 207.9336 15.11947979 51276
LUCKY-7                 
1 44406U 19038W   20160.86813794  .00000420  00000-0  27968-4 0  9996
2 44406  97.5388 122.3259 0025337 151.9071 208.3532 15.12211501 51275
BEESAT 9                
1 44412U 19038AC  20160.86720834  .00000605  00000-0  38528-4 0  9994
2 44412  97.5380 122.3060 0023260 157.1650 203.0620 15.12287635 50975
JAISAT-1                
1 44419U 19038F   20160.89023964  .00000675  00000-0  42012-4 0  9994
2 44419  97.5380 122.5866 0022129 156.1081 204.1182 15.12770802 51304
SWIATOWID               
1 44426U 98067QL  20161.08545824  .00016555  00000-0  20046-3 0  9993
2 44426  51.6422  14.0516 0001533 271.7659 224.6799 15.60805374 53206
KRAKSAT                 
1 44427U 98067QM  20161.12629810  .00006099  00000-0  93288-4 0  9998
2 44427  51.6439  18.9492 0002243 281.5171 159.3596 15.55868594 53181
VCC A                   
1 44428U 98067QN  20160.84280313  .00009111  00000-0  12971-3 0  9995
2 44428  51.6415  18.7347 0001694 313.1282  46.9568 15.57143332 53163
ENTRYSAT                
1 44429U 98067QP  20160.88188417  .00011605  00000-0  15766-3 0  9998
2 44429  51.6397  17.4695 0001332 295.9300  64.1555 15.58098271 53184
VCC C                   
1 44430U 98067QQ  20160.86114182  .00013344  00000-0  17278-3 0  9998
2 44430  51.6393  16.5912 0001185 321.6761  38.4147 15.59233673 52029
VCC B                   
1 44431U 98067QR  20160.77855066  .00009059  00000-0  12884-3 0  9998
2 44431  51.6405  19.0414 0001822 309.6436  50.4395 15.57179117 53099
ATL-1                   
1 44830U 19084G   20160.76958841  .00045930  00000-0  26891-3 0  9998
2 44830  96.9747  29.8486 0024235 267.6786  92.1707 15.77783019 29081
SMOG-P                  
1 44832U 19084J   20161.09031766  .00060306  00000-0  33332-3 0  9997
2 44832  96.9745  30.3261 0022900 264.1706  95.6952 15.79061575 29145
